STARLINK-36391          
1 67591U 26018C   26047.45173834  .00152202  00000+0  77902-3 0  9998
2 67591  97.2831 112.1982 0001916 121.8546 238.2909 15.80886502  3962
STARLINK-36603          
1 67592U 26018D   26047.32439685  .00173822  00000+0  88949-3 0  9998
2 67592  97.2833 112.0653 0001125 101.4177 258.7218 15.80834816  3944
STARLINK-36634          
1 67593U 26018E   26047.32324279  .00312825  00000+0  15705-2 0  9998
2 67593  97.2828 112.0664 0001318 125.6042 234.5350 15.80893037  3943
STARLINK-36638          
1 67594U 26018F   26047.44873573  .00209571  00000+0  10653-2 0  9998
2 67594  97.2831 112.2019 0001666 113.9954 246.1489 15.80886595  3967
STARLINK-36628          
1 67595U 26018G   26047.50002314  .00070945  00000+0  47348-3 0  9996
2 67595  97.2843 112.2432 0000844  84.2432 179.4777 15.75146020  3939
STARLINK-36629          
1 67596U 26018H   26047.46127945  .00191462  00000+0  12539-2 0  9991
2 67596  97.2836 112.1837 0001526  38.6374 321.5001 15.75227843  3962
STARLINK-36384          
1 67597U 26018J   26047.31918721  .00369043  00000+0  18389-2 0  9997
2 67597  97.2833 112.0707 0001235  57.9125 302.2263 15.80912340  3943
STARLINK-36358          
1 67598U 26018K   26047.50002314  .00034651  00000+0  23250-3 0  9999
2 67598  97.2842 112.2389 0001571  81.1339 172.5839 15.75163704  3988
STARLINK-36582          
1 67599U 26018L   26047.44383572  .00295958  00000+0  14864-2 0  9990
2 67599  97.2831 112.2077 0001877 117.0429 243.1031 15.80927868  4018
STARLINK-36640          
1 67600U 26018M   26047.45916280  .00199495  00000+0  13050-2 0  9997
2 67600  97.2838 112.1865 0000920  72.4780 287.6586 15.75231126  3964
STARLINK-36635          
1 67601U 26018N   26047.31634881  .00371801  00000+0  18529-2 0  9996
2 67601  97.2833 112.0746 0000870  57.1009 303.0342 15.80901484  3943
STARLINK-36631          
1 67602U 26018P   26047.44057221  .00303687  00000+0  15252-2 0  9995
2 67602  97.2834 112.2116 0000932  79.7571 280.3802 15.80908357  3967
