CCSDS_OMM_VERS = 2.0
CREATION_DATE  = 
ORIGINATOR     = 

OBJECT_NAME    = STARLINK-36391
OBJECT_ID      = 2026-018C
CENTER_NAME    = EARTH
REF_FRAME      = TEME
TIME_SYSTEM    = UTC
MEAN_ELEMENT_THEORY = SGP/SGP4

EPOCH          = 2026-02-16T10:50:30.192576
MEAN_MOTION    = 15.80886502
ECCENTRICITY   = .0001916
INCLINATION    = 97.2831
RA_OF_ASC_NODE = 112.1982
ARG_OF_PERICENTER = 121.8546
MEAN_ANOMALY   = 238.2909

EPHEMERIS_TYPE = 0
CLASSIFICATION_TYPE = U
NORAD_CAT_ID   = 67591
ELEMENT_SET_NO = 999
REV_AT_EPOCH   = 396
BSTAR          = .77902E-3
MEAN_MOTION_DOT = .152202E-2
MEAN_MOTION_DDOT = 0

CCSDS_OMM_VERS = 2.0
CREATION_DATE  = 
ORIGINATOR     = 

OBJECT_NAME    = STARLINK-36603
OBJECT_ID      = 2026-018D
CENTER_NAME    = EARTH
REF_FRAME      = TEME
TIME_SYSTEM    = UTC
MEAN_ELEMENT_THEORY = SGP/SGP4

EPOCH          = 2026-02-16T07:47:07.887840
MEAN_MOTION    = 15.80834816
ECCENTRICITY   = .0001125
INCLINATION    = 97.2833
RA_OF_ASC_NODE = 112.0653
ARG_OF_PERICENTER = 101.4177
MEAN_ANOMALY   = 258.7218

EPHEMERIS_TYPE = 0
CLASSIFICATION_TYPE = U
NORAD_CAT_ID   = 67592
ELEMENT_SET_NO = 999
REV_AT_EPOCH   = 394
BSTAR          = .88949E-3
MEAN_MOTION_DOT = .173822E-2
MEAN_MOTION_DDOT = 0

CCSDS_OMM_VERS = 2.0
CREATION_DATE  = 
ORIGINATOR     = 

OBJECT_NAME    = STARLINK-36634
OBJECT_ID      = 2026-018E
CENTER_NAME    = EARTH
REF_FRAME      = TEME
TIME_SYSTEM    = UTC
MEAN_ELEMENT_THEORY = SGP/SGP4

EPOCH          = 2026-02-16T07:45:28.177056
MEAN_MOTION    = 15.80893037
ECCENTRICITY   = .0001318
INCLINATION    = 97.2828
RA_OF_ASC_NODE = 112.0664
ARG_OF_PERICENTER = 125.6042
MEAN_ANOMALY   = 234.5350

EPHEMERIS_TYPE = 0
CLASSIFICATION_TYPE = U
NORAD_CAT_ID   = 67593
ELEMENT_SET_NO = 999
REV_AT_EPOCH   = 394
BSTAR          = .15705E-2
MEAN_MOTION_DOT = .312825E-2
MEAN_MOTION_DDOT = 0

CCSDS_OMM_VERS = 2.0
CREATION_DATE  = 
ORIGINATOR     = 

OBJECT_NAME    = STARLINK-36638
OBJECT_ID      = 2026-018F
CENTER_NAME    = EARTH
REF_FRAME      = TEME
TIME_SYSTEM    = UTC
MEAN_ELEMENT_THEORY = SGP/SGP4

EPOCH          = 2026-02-16T10:46:10.767072
MEAN_MOTION    = 15.80886595
ECCENTRICITY   = .0001666
INCLINATION    = 97.2831
RA_OF_ASC_NODE = 112.2019
ARG_OF_PERICENTER = 113.9954
MEAN_ANOMALY   = 246.1489

EPHEMERIS_TYPE = 0
CLASSIFICATION_TYPE = U
NORAD_CAT_ID   = 67594
ELEMENT_SET_NO = 999
REV_AT_EPOCH   = 396
BSTAR          = .10653E-2
MEAN_MOTION_DOT = .209571E-2
MEAN_MOTION_DDOT = 0

CCSDS_OMM_VERS = 2.0
CREATION_DATE  = 
ORIGINATOR     = 

OBJECT_NAME    = STARLINK-36628
OBJECT_ID      = 2026-018G
CENTER_NAME    = EARTH
REF_FRAME      = TEME
TIME_SYSTEM    = UTC
MEAN_ELEMENT_THEORY = SGP/SGP4

EPOCH          = 2026-02-16T12:00:01.999296
MEAN_MOTION    = 15.75146020
ECCENTRICITY   = .0000844
INCLINATION    = 97.2843
RA_OF_ASC_NODE = 112.2432
ARG_OF_PERICENTER = 84.2432
MEAN_ANOMALY   = 179.4777

EPHEMERIS_TYPE = 0
CLASSIFICATION_TYPE = U
NORAD_CAT_ID   = 67595
ELEMENT_SET_NO = 999
REV_AT_EPOCH   = 393
BSTAR          = .47348E-3
MEAN_MOTION_DOT = .70945E-3
MEAN_MOTION_DDOT = 0

CCSDS_OMM_VERS = 2.0
CREATION_DATE  = 
ORIGINATOR     = 

OBJECT_NAME    = STARLINK-36629
OBJECT_ID      = 2026-018H
CENTER_NAME    = EARTH
REF_FRAME      = TEME
TIME_SYSTEM    = UTC
MEAN_ELEMENT_THEORY = SGP/SGP4

EPOCH          = 2026-02-16T11:04:14.544480
MEAN_MOTION    = 15.75227843
ECCENTRICITY   = .0001526
INCLINATION    = 97.2836
RA_OF_ASC_NODE = 112.1837
ARG_OF_PERICENTER = 38.6374
MEAN_ANOMALY   = 321.5001

EPHEMERIS_TYPE = 0
CLASSIFICATION_TYPE = U
NORAD_CAT_ID   = 67596
ELEMENT_SET_NO = 999
REV_AT_EPOCH   = 396
BSTAR          = .12539E-2
MEAN_MOTION_DOT = .191462E-2
MEAN_MOTION_DDOT = 0

CCSDS_OMM_VERS = 2.0
CREATION_DATE  = 
ORIGINATOR     = 

OBJECT_NAME    = STARLINK-36384
OBJECT_ID      = 2026-018J
CENTER_NAME    = EARTH
REF_FRAME      = TEME
TIME_SYSTEM    = UTC
MEAN_ELEMENT_THEORY = SGP/SGP4

EPOCH          = 2026-02-16T07:39:37.774944
MEAN_MOTION    = 15.80912340
ECCENTRICITY   = .0001235
INCLINATION    = 97.2833
RA_OF_ASC_NODE = 112.0707
ARG_OF_PERICENTER = 57.9125
MEAN_ANOMALY   = 302.2263

EPHEMERIS_TYPE = 0
CLASSIFICATION_TYPE = U
NORAD_CAT_ID   = 67597
ELEMENT_SET_NO = 999
REV_AT_EPOCH   = 394
BSTAR          = .18389E-2
MEAN_MOTION_DOT = .369043E-2
MEAN_MOTION_DDOT = 0

CCSDS_OMM_VERS = 2.0
CREATION_DATE  = 
ORIGINATOR     = 

OBJECT_NAME    = STARLINK-36358
OBJECT_ID      = 2026-018K
CENTER_NAME    = EARTH
REF_FRAME      = TEME
TIME_SYSTEM    = UTC
MEAN_ELEMENT_THEORY = SGP/SGP4

EPOCH          = 2026-02-16T12:00:01.999296
MEAN_MOTION    = 15.75163704
ECCENTRICITY   = .0001571
INCLINATION    = 97.2842
RA_OF_ASC_NODE = 112.2389
ARG_OF_PERICENTER = 81.1339
MEAN_ANOMALY   = 172.5839

EPHEMERIS_TYPE = 0
CLASSIFICATION_TYPE = U
NORAD_CAT_ID   = 67598
ELEMENT_SET_NO = 999
REV_AT_EPOCH   = 398
BSTAR          = .2325E-3
MEAN_MOTION_DOT = .34651E-3
MEAN_MOTION_DDOT = 0

CCSDS_OMM_VERS = 2.0
CREATION_DATE  = 
ORIGINATOR     = 

OBJECT_NAME    = STARLINK-36582
OBJECT_ID      = 2026-018L
CENTER_NAME    = EARTH
REF_FRAME      = TEME
TIME_SYSTEM    = UTC
MEAN_ELEMENT_THEORY = SGP/SGP4

EPOCH          = 2026-02-16T10:39:07.406208
MEAN_MOTION    = 15.80927868
ECCENTRICITY   = .0001877
INCLINATION    = 97.2831
RA_OF_ASC_NODE = 112.2077
ARG_OF_PERICENTER = 117.0429
MEAN_ANOMALY   = 243.1031

EPHEMERIS_TYPE = 0
CLASSIFICATION_TYPE = U
NORAD_CAT_ID   = 67599
ELEMENT_SET_NO = 999
REV_AT_EPOCH   = 401
BSTAR          = .14864E-2
MEAN_MOTION_DOT = .295958E-2
MEAN_MOTION_DDOT = 0

CCSDS_OMM_VERS = 2.0
CREATION_DATE  = 
ORIGINATOR     = 

OBJECT_NAME    = STARLINK-36640
OBJECT_ID      = 2026-018M
CENTER_NAME    = EARTH
REF_FRAME      = TEME
TIME_SYSTEM    = UTC
MEAN_ELEMENT_THEORY = SGP/SGP4

EPOCH          = 2026-02-16T11:01:11.665920
MEAN_MOTION    = 15.75231126
ECCENTRICITY   = .000092
INCLINATION    = 97.2838
RA_OF_ASC_NODE = 112.1865
ARG_OF_PERICENTER = 72.4780
MEAN_ANOMALY   = 287.6586

EPHEMERIS_TYPE = 0
CLASSIFICATION_TYPE = U
NORAD_CAT_ID   = 67600
ELEMENT_SET_NO = 999
REV_AT_EPOCH   = 396
BSTAR          = .1305E-2
MEAN_MOTION_DOT = .199495E-2
MEAN_MOTION_DDOT = 0

CCSDS_OMM_VERS = 2.0
CREATION_DATE  = 
ORIGINATOR     = 

OBJECT_NAME    = STARLINK-36635
OBJECT_ID      = 2026-018N
CENTER_NAME    = EARTH
REF_FRAME      = TEME
TIME_SYSTEM    = UTC
MEAN_ELEMENT_THEORY = SGP/SGP4

EPOCH          = 2026-02-16T07:35:32.537184
MEAN_MOTION    = 15.80901484
ECCENTRICITY   = .000087
INCLINATION    = 97.2833
RA_OF_ASC_NODE = 112.0746
ARG_OF_PERICENTER = 57.1009
MEAN_ANOMALY   = 303.0342

EPHEMERIS_TYPE = 0
CLASSIFICATION_TYPE = U
NORAD_CAT_ID   = 67601
ELEMENT_SET_NO = 999
REV_AT_EPOCH   = 394
BSTAR          = .18529E-2
MEAN_MOTION_DOT = .371801E-2
MEAN_MOTION_DDOT = 0

CCSDS_OMM_VERS = 2.0
CREATION_DATE  = 
ORIGINATOR     = 

OBJECT_NAME    = STARLINK-36631
OBJECT_ID      = 2026-018P
CENTER_NAME    = EARTH
REF_FRAME      = TEME
TIME_SYSTEM    = UTC
MEAN_ELEMENT_THEORY = SGP/SGP4

EPOCH          = 2026-02-16T10:34:25.438944
MEAN_MOTION    = 15.80908357
ECCENTRICITY   = .0000932
INCLINATION    = 97.2834
RA_OF_ASC_NODE = 112.2116
ARG_OF_PERICENTER = 79.7571
MEAN_ANOMALY   = 280.3802

EPHEMERIS_TYPE = 0
CLASSIFICATION_TYPE = U
NORAD_CAT_ID   = 67602
ELEMENT_SET_NO = 999
REV_AT_EPOCH   = 396
BSTAR          = .15252E-2
MEAN_MOTION_DOT = .303687E-2
MEAN_MOTION_DDOT = 0

